[{"OBJECT_NAME":"STARLINK-30162","OBJECT_ID":"2023-105S","EPOCH":"2026-03-09T22:00:01.999584","MEAN_MOTION":15.15680844,"ECCENTRICITY":0.00014722,"INCLINATION":43.0007,"RA_OF_ASC_NODE":246.8903,"ARG_OF_PERICENTER":274.6501,"MEAN_ANOMALY":98.8321,"EPHEMERIS_TYPE":0,"CLASSIFICATION_TYPE":"U","NORAD_CAT_ID":57446,"ELEMENT_SET_NO":999,"REV_AT_EPOCH":578,"BSTAR":0.034975087,"MEAN_MOTION_DOT":0.00729589,"MEAN_MOTION_DDOT":0},{"OBJECT_NAME":"SUPERVIEW NEO-2 03","OBJECT_ID":"2024-218B","EPOCH":"2026-03-09T13:29:09.257280","MEAN_MOTION":15.19718665,"ECCENTRICITY":0.0001687,"INCLINATION":97.4399,"RA_OF_ASC_NODE":77.3104,"ARG_OF_PERICENTER":89.5472,"MEAN_ANOMALY":270.5956,"EPHEMERIS_TYPE":0,"CLASSIFICATION_TYPE":"U","NORAD_CAT_ID":62079,"ELEMENT_SET_NO":999,"REV_AT_EPOCH":7131,"BSTAR":0.00018696,"MEAN_MOTION_DOT":3.926e-5,"MEAN_MOTION_DDOT":0}]
